{
  "68271": {
    "noradId": "68271",
    "tle": [
      "1 68271C 26055K   26087.96784722 -.01159000  00000+0 -28749-2 0   877",
      "2 68271  53.1575 240.9368 0000914  58.4790  65.8250 15.95745923    18"
    ]
  },
  "68272": {
    "noradId": "68272",
    "tle": [
      "1 68272C 26055L   26087.92340278 -.01122100  00000+0 -27360-2 0   877",
      "2 68272  53.1576 241.1487 0000768  57.4866 178.9638 15.96045308    12"
    ]
  },
  "68273": {
    "noradId": "68273",
    "tle": [
      "1 68273C 26055M   26087.93312500 -.01140100  00000+0 -27676-2 0   876",
      "2 68273  53.1575 241.0922 0000704  49.1614 246.1398 15.96136687    16"
    ]
  },
  "68274": {
    "noradId": "68274",
    "tle": [
      "1 68274C 26055N   26087.98798611 -.01179600  00000+0 -28660-2 0   874",
      "2 68274  53.1572 240.8038 0000670  55.7206 198.4100 15.96139219    15"
    ]
  },
  "68275": {
    "noradId": "68275",
    "tle": [
      "1 68275C 26055P   26087.90256944 -.01122100  00000+0 -26822-2 0   876",
      "2 68275  53.1578 241.2364 0000977  54.2462  71.5979 15.96410996    16"
    ]
  },
  "68276": {
    "noradId": "68276",
    "tle": [
      "1 68276C 26055Q   26087.98868056 -.01192200  00000+0 -28621-2 0   875",
      "2 68276  53.1573 240.7860 0000740  51.3955 213.6609 15.96367233    14"
    ]
  },
  "68277": {
    "noradId": "68277",
    "tle": [
      "1 68277C 26055R   26087.92548611 -.01141300  00000+0 -26676-2 0   875",
      "2 68277  53.1574 241.0890 0000723  58.2295 213.8346 15.96832474    11"
    ]
  },
  "68278": {
    "noradId": "68278",
    "tle": [
      "1 68278C 26055S   26087.93520833 -.01147100  00000+0 -27012-2 0   872",
      "2 68278  53.1574 241.0464 0000750  54.0635 270.6898 15.96699041    15"
    ]
  },
  "68279": {
    "noradId": "68279",
    "tle": [
      "1 68279C 26055T   26088.01645833 -.01251700  00000+0 -29965-2 0   883",
      "2 68279  53.1572 240.6356 0001007  52.8354  15.8933 15.96448924    10"
    ]
  },
  "68280": {
    "noradId": "68280",
    "tle": [
      "1 68280C 26055U   26087.97409722 -.01188400  00000+0 -27762-2 0   872",
      "2 68280  53.1574 240.8310 0000744  57.1903 138.4184 15.96866066    12"
    ]
  },
  "68281": {
    "noradId": "68281",
    "tle": [
      "1 68281C 26055V   26087.95881944 -.01192600  00000+0 -27428-2 0   877",
      "2 68281  53.1570 240.8949 0000885  59.2274  55.5894 15.97153004    16"
    ]
  },
  "68282": {
    "noradId": "68282",
    "tle": [
      "1 68282C 26055W   26087.98868056 -.01211000  00000+0 -28147-2 0   875",
      "2 68282  53.1572 240.7492 0000705  56.5109 226.6989 15.96968873    12"
    ]
  },
  "68283": {
    "noradId": "68283",
    "tle": [
      "1 68283C 26055X   26087.99076389 -.01221600  00000+0 -28036-2 0   871",
      "2 68283  53.1570 240.7250 0000649  53.6189 247.9466 15.97205991    18"
    ]
  },
  "68284": {
    "noradId": "68284",
    "tle": [
      "1 68284C 26055Y   26087.92618056 -.01163400  00000+0 -26289-2 0   879",
      "2 68284  53.1573 241.0494 0000701  62.6359 230.9547 15.97458386    14"
    ]
  },
  "68285": {
    "noradId": "68285",
    "tle": [
      "1 68285C 26055Z   26087.90951389 -.01118000  00000+0 -25047-2 0   874",
      "2 68285  53.1570 241.1285 0000854  60.0247 140.5597 15.97590371    10"
    ]
  },
  "68286": {
    "noradId": "68286",
    "tle": [
      "1 68286C 26055AA  26088.01090278 -.01300000  00000+0 -29089-2 0   883",
      "2 68286  53.1575 240.5935 0000873  60.7727  10.5108 15.97705226    13"
    ]
  },
  "68287": {
    "noradId": "68287",
    "tle": [
      "1 68287C 26055AB  26087.99493056 -.01331900  00000+0 -29542-2 0   877",
      "2 68287  53.1571 240.6671 0000684  53.5608 289.1922 15.97880834    13"
    ]
  },
  "68288": {
    "noradId": "68288",
    "tle": [
      "1 68288C 26055AC  26087.93659722 -.01164100  00000+0 -25984-2 0   878",
      "2 68288  53.1570 240.9825 0000762  50.5047 309.3316 15.97681159    19"
    ]
  },
  "68289": {
    "noradId": "68289",
    "tle": [
      "1 68289C 26055AD  26087.93868056 -.01264900  00000+0 -27656-2 0   878",
      "2 68289  53.1574 240.9498 0000838  54.0179 327.9493 15.98105750    10"
    ]
  },
  "68290": {
    "noradId": "68290",
    "tle": [
      "1 68290C 26055AE  26088.01159722 -.01448500  00000+0 -31820-2 0   882",
      "2 68290  53.1568 240.5695 0000994  71.1165  13.2121 15.98113106    15"
    ]
  },
  "68294": {
    "noradId": "68294",
    "tle": [
      "1 68294C 26057A   26087.96923611 -.01218400  00000+0 -23122-2 0   876",
      "2 68294  97.2817 211.0972 0001365  82.7379 197.1013 16.01344413    18"
    ]
  },
  "68295": {
    "noradId": "68295",
    "tle": [
      "1 68295C 26057B   26087.95395833 -.01207100  00000+0 -22740-2 0   875",
      "2 68295  97.2814 211.0812 0001465  77.3657 116.7875 16.01465072    17"
    ]
  },
  "68296": {
    "noradId": "68296",
    "tle": [
      "1 68296C 26057C   26088.01298611 -.01226100  00000+0 -22869-2 0   884",
      "2 68296  97.2810 211.1491 0001533  73.7221 108.2629 16.01648904    11"
    ]
  },
  "68297": {
    "noradId": "68297",
    "tle": [
      "1 68297C 26057D   26087.96090278 -.01217500  00000+0 -22677-2 0   877",
      "2 68297  97.2809 211.0902 0001310  75.6694 163.8633 16.01669736    12"
    ]
  },
  "68298": {
    "noradId": "68298",
    "tle": [
      "1 68298C 26057E   26087.95951389 -.01200300  00000+0 -22500-2 0   871",
      "2 68298  97.2812 211.0879 0001343  81.6899 146.8567 16.01549884    18"
    ]
  },
  "68299": {
    "noradId": "68299",
    "tle": [
      "1 68299C 26057F   26087.99145833 -.01234600  00000+0 -22671-2 0   874",
      "2 68299  97.2806 211.1275 0001380  60.2749   3.0731 16.01925100    17"
    ]
  },
  "68300": {
    "noradId": "68300",
    "tle": [
      "1 68300C 26057G   26087.99145833 -.01229400  00000+0 -22705-2 0   877",
      "2 68300  97.2809 211.1264 0001395  61.9162 359.1242 16.01823243    11"
    ]
  },
  "68301": {
    "noradId": "68301",
    "tle": [
      "1 68301C 26057H   26087.99770833 -.01231500  00000+0 -22470-2 0   875",
      "2 68301  97.2804 211.1361 0001318  60.4033  42.2468 16.02034750    19"
    ]
  },
  "68302": {
    "noradId": "68302",
    "tle": [
      "1 68302C 26057J   26087.97340278 -.01250500  00000+0 -22409-2 0   873",
      "2 68302  97.2801 211.1119 0001220  75.5916 253.4215 16.02358540    19"
    ]
  },
  "68303": {
    "noradId": "68303",
    "tle": [
      "1 68303C 26057K   26088.01784722 -.01184600  00000+0 -21527-2 0   884",
      "2 68303  97.2801 211.1594 0001459  69.2443 153.0106 16.02080891    11"
    ]
  },
  "68304": {
    "noradId": "68304",
    "tle": [
      "1 68304C 26057L   26087.96854167 -.01246300  00000+0 -22185-2 0   875",
      "2 68304  97.2802 211.1077 0001057  75.7521 227.5220 16.02471638    19"
    ]
  },
  "68305": {
    "noradId": "68305",
    "tle": [
      "1 68305C 26057M   26088.02618056 -.01218500  00000+0 -21586-2 0   885",
      "2 68305  97.2795 211.1730 0001352  66.8925 214.1215 16.02539130    12"
    ]
  },
  "68306": {
    "noradId": "68306",
    "tle": [
      "1 68306C 26057N   26087.98451389 -.01255400  00000+0 -22266-2 0   879",
      "2 68306  97.2801 211.1263 0001151  70.9502 326.6486 16.02538659    10"
    ]
  },
  "68307": {
    "noradId": "68307",
    "tle": [
      "1 68307C 26057P   26087.92687500 -.01257800  00000+0 -21780-2 0   876",
      "2 68307  97.2799 211.0656 0001413  68.1464   3.6514 16.02951131    17"
    ]
  },
  "68308": {
    "noradId": "68308",
    "tle": [
      "1 68308C 26057Q   26087.99979167 -.01259500  00000+0 -21918-2 0   879",
      "2 68308  97.2792 211.1458 0001468  74.0295  60.1748 16.02866442    17"
    ]
  },
  "68309": {
    "noradId": "68309",
    "tle": [
      "1 68309C 26057R   26087.98381944 -.01255300  00000+0 -21655-2 0   871",
      "2 68309  97.2790 211.1294 0001271  68.8796 335.7482 16.03014745    11"
    ]
  },
  "68310": {
    "noradId": "68310",
    "tle": [
      "1 68310C 26057S   26087.99284722 -.01257800  00000+0 -21427-2 0   874",
      "2 68310  97.2789 211.1417 0001449  72.8913  29.0888 16.03231174    11"
    ]
  },
  "68311": {
    "noradId": "68311",
    "tle": [
      "1 68311C 26057T   26087.98729167 -.01245800  00000+0 -21347-2 0   879",
      "2 68311  97.2791 211.1348 0001366  59.6686   7.7893 16.03124976    16"
    ]
  },
  "68312": {
    "noradId": "68312",
    "tle": [
      "1 68312C 26057U   26088.00812500 -.01234300  00000+0 -20938-2 0   887",
      "2 68312  97.2789 211.1599 0001536  76.0211 116.4828 16.03290955    15"
    ]
  },
  "68313": {
    "noradId": "68313",
    "tle": [
      "1 68313C 26057V   26087.96854167 -.01243800  00000+0 -20823-2 0   874",
      "2 68313  97.2791 211.1177 0001229  66.6376 260.4433 16.03520763    12"
    ]
  },
  "68314": {
    "noradId": "68314",
    "tle": [
      "1 68314C 26057W   26087.99909722 -.01233200  00000+0 -20408-2 0   878",
      "2 68314  97.2786 211.1538 0001514  74.2782  75.1550 16.03711818    15"
    ]
  },
  "68315": {
    "noradId": "68315",
    "tle": [
      "1 68315C 26057X   26088.01645833 -.01227800  00000+0 -20525-2 0   883",
      "2 68315  97.2787 211.1717 0001330  85.5666 161.2079 16.03537225    19"
    ]
  },
  "68316": {
    "noradId": "68316",
    "tle": [
      "1 68316C 26057Y   26088.01368056 -.01229000  00000+0 -20047-2 0   886",
      "2 68316  97.2781 211.1726 0001367  74.4143 165.3546 16.03954752    13"
    ]
  },
  "68317": {
    "noradId": "68317",
    "tle": [
      "1 68317C 26057Z   26088.00534722 -.01235000  00000+0 -20288-2 0   885",
      "2 68317  97.2783 211.1620 0001460  73.6370 114.9895 16.03836922    11"
    ]
  },
  "68318": {
    "noradId": "68318",
    "tle": [
      "1 68318C 26057AA  26087.92965278 -.01220000  00000+0 -19491-2 0   877",
      "2 68318  97.2783 211.0814 0001201  68.9132  49.1424 16.04300118    13"
    ]
  }
}